[Satellite]
VERSION=1.1
NAME=GSAT0216 (PRN E25)
NICKNAME=GSAT0216 (PRN E25)
TLE1=1 43056U 17079B   18017.80318606 -.00000040  00000-0  00000+0 0  9995
TLE2=2 43056  56.9000 305.8720 0001842  21.9766 337.9826  1.70868034   602
